{
"type": "FeatureCollection",
"name": "ic_hubs",
"crs": { "type": "name", "properties": { "name": "urn:ogc:def:crs:OGC:1.3:CRS84" } },
"features": [
{ "type": "Feature", "properties": { "id": "8014325", "stop_id": "8014325", "stop_name": "Ringsheim/Europa-Park" }, "geometry": { "type": "Point", "coordinates": [ 7.77304131, 48.24872492 ] } },
{ "type": "Feature", "properties": { "id": "8014558", "stop_id": "8014558", "stop_name": "Singen (Hohentwiel)" }, "geometry": { "type": "Point", "coordinates": [ 8.84127293, 47.75887763 ] } },
{ "type": "Feature", "properties": { "id": "8301003", "stop_id": "8301003", "stop_name": "Domodossola (I)" }, "geometry": { "type": "Point", "coordinates": [ 8.29623809, 46.11529118 ] } },
{ "type": "Feature", "properties": { "id": "8500010", "stop_id": "8500010", "stop_name": "Basel SBB" }, "geometry": { "type": "Point", "coordinates": [ 7.58956041, 47.54741261 ] } },
{ "type": "Feature", "properties": { "id": "8500023", "stop_id": "8500023", "stop_name": "Liestal" }, "geometry": { "type": "Point", "coordinates": [ 7.73136846, 47.48446052 ] } },
{ "type": "Feature", "properties": { "id": "8500026", "stop_id": "8500026", "stop_name": "Sissach" }, "geometry": { "type": "Point", "coordinates": [ 7.81202819, 47.46275319 ] } },
{ "type": "Feature", "properties": { "id": "8500105", "stop_id": "8500105", "stop_name": "Moutier" }, "geometry": { "type": "Point", "coordinates": [ 7.38104346, 47.28067307 ] } },
{ "type": "Feature", "properties": { "id": "8500109", "stop_id": "8500109", "stop_name": "Delémont" }, "geometry": { "type": "Point", "coordinates": [ 7.35006057, 47.36201119 ] } },
{ "type": "Feature", "properties": { "id": "8500159", "stop_id": "8500159", "stop_name": "Grenchen Nord" }, "geometry": { "type": "Point", "coordinates": [ 7.38962238, 47.19169561 ] } },
{ "type": "Feature", "properties": { "id": "8500202", "stop_id": "8500202", "stop_name": "Grenchen Süd" }, "geometry": { "type": "Point", "coordinates": [ 7.39818332, 47.18877759 ] } },
{ "type": "Feature", "properties": { "id": "8500207", "stop_id": "8500207", "stop_name": "Solothurn" }, "geometry": { "type": "Point", "coordinates": [ 7.54268632, 47.20419001 ] } },
{ "type": "Feature", "properties": { "id": "8500212", "stop_id": "8500212", "stop_name": "Oensingen" }, "geometry": { "type": "Point", "coordinates": [ 7.70987177, 47.28503636 ] } },
{ "type": "Feature", "properties": { "id": "8500218", "stop_id": "8500218", "stop_name": "Olten" }, "geometry": { "type": "Point", "coordinates": [ 7.90769877, 47.3519337 ] } },
{ "type": "Feature", "properties": { "id": "8500309", "stop_id": "8500309", "stop_name": "Brugg AG" }, "geometry": { "type": "Point", "coordinates": [ 8.208841, 47.48086045 ] } },
{ "type": "Feature", "properties": { "id": "8501008", "stop_id": "8501008", "stop_name": "Genève" }, "geometry": { "type": "Point", "coordinates": [ 6.14245533, 46.21021156 ] } },
{ "type": "Feature", "properties": { "id": "8501026", "stop_id": "8501026", "stop_name": "Genève-Aéroport" }, "geometry": { "type": "Point", "coordinates": [ 6.11198448, 46.23253659 ] } },
{ "type": "Feature", "properties": { "id": "8501030", "stop_id": "8501030", "stop_name": "Nyon" }, "geometry": { "type": "Point", "coordinates": [ 6.23596996, 46.38441838 ] } },
{ "type": "Feature", "properties": { "id": "8501037", "stop_id": "8501037", "stop_name": "Morges" }, "geometry": { "type": "Point", "coordinates": [ 6.4939661, 46.51109947 ] } },
{ "type": "Feature", "properties": { "id": "8501118", "stop_id": "8501118", "stop_name": "Renens VD" }, "geometry": { "type": "Point", "coordinates": [ 6.57893775, 46.53704052 ] } },
{ "type": "Feature", "properties": { "id": "8501120", "stop_id": "8501120", "stop_name": "Lausanne" }, "geometry": { "type": "Point", "coordinates": [ 6.62909069, 46.5167931 ] } },
{ "type": "Feature", "properties": { "id": "8501605", "stop_id": "8501605", "stop_name": "Visp" }, "geometry": { "type": "Point", "coordinates": [ 7.88146796, 46.29402637 ] } },
{ "type": "Feature", "properties": { "id": "8501609", "stop_id": "8501609", "stop_name": "Brig" }, "geometry": { "type": "Point", "coordinates": [ 7.98809798, 46.31942565 ] } },
{ "type": "Feature", "properties": { "id": "8502001", "stop_id": "8502001", "stop_name": "Zofingen" }, "geometry": { "type": "Point", "coordinates": [ 7.94311934, 47.28805267 ] } },
{ "type": "Feature", "properties": { "id": "8502007", "stop_id": "8502007", "stop_name": "Sursee" }, "geometry": { "type": "Point", "coordinates": [ 8.09789008, 47.17079586 ] } },
{ "type": "Feature", "properties": { "id": "8502020", "stop_id": "8502020", "stop_name": "Rothenburg Station" }, "geometry": { "type": "Point", "coordinates": [ 8.24755839, 47.08918192 ] } },
{ "type": "Feature", "properties": { "id": "8502021", "stop_id": "8502021", "stop_name": "Emmenbrücke" }, "geometry": { "type": "Point", "coordinates": [ 8.28256573, 47.07060359 ] } },
{ "type": "Feature", "properties": { "id": "8502110", "stop_id": "8502110", "stop_name": "Dulliken" }, "geometry": { "type": "Point", "coordinates": [ 7.946497, 47.35427677 ] } },
{ "type": "Feature", "properties": { "id": "8502111", "stop_id": "8502111", "stop_name": "Däniken SO" }, "geometry": { "type": "Point", "coordinates": [ 7.97877347, 47.35638848 ] } },
{ "type": "Feature", "properties": { "id": "8502112", "stop_id": "8502112", "stop_name": "Schönenwerd SO" }, "geometry": { "type": "Point", "coordinates": [ 8.00016236, 47.37142364 ] } },
{ "type": "Feature", "properties": { "id": "8502113", "stop_id": "8502113", "stop_name": "Aarau" }, "geometry": { "type": "Point", "coordinates": [ 8.0512765, 47.39136249 ] } },
{ "type": "Feature", "properties": { "id": "8502119", "stop_id": "8502119", "stop_name": "Lenzburg" }, "geometry": { "type": "Point", "coordinates": [ 8.1703931, 47.39119829 ] } },
{ "type": "Feature", "properties": { "id": "8502202", "stop_id": "8502202", "stop_name": "Rotkreuz" }, "geometry": { "type": "Point", "coordinates": [ 8.43049131, 47.14176191 ] } },
{ "type": "Feature", "properties": { "id": "8502204", "stop_id": "8502204", "stop_name": "Zug" }, "geometry": { "type": "Point", "coordinates": [ 8.51504973, 47.17370877 ] } },
{ "type": "Feature", "properties": { "id": "8502213", "stop_id": "8502213", "stop_name": "Wohlen AG" }, "geometry": { "type": "Point", "coordinates": [ 8.26979169, 47.34846455 ] } },
{ "type": "Feature", "properties": { "id": "8502215", "stop_id": "8502215", "stop_name": "Muri AG" }, "geometry": { "type": "Point", "coordinates": [ 8.33982435, 47.276669 ] } },
{ "type": "Feature", "properties": { "id": "8503000", "stop_id": "8503000", "stop_name": "Zürich HB" }, "geometry": { "type": "Point", "coordinates": [ 8.54021154, 47.3781762 ] } },
{ "type": "Feature", "properties": { "id": "8503016", "stop_id": "8503016", "stop_name": "Zürich Flughafen" }, "geometry": { "type": "Point", "coordinates": [ 8.56239993, 47.45038663 ] } },
{ "type": "Feature", "properties": { "id": "8503202", "stop_id": "8503202", "stop_name": "Thalwil" }, "geometry": { "type": "Point", "coordinates": [ 8.56477148, 47.29597958 ] } },
{ "type": "Feature", "properties": { "id": "8503424", "stop_id": "8503424", "stop_name": "Schaffhausen" }, "geometry": { "type": "Point", "coordinates": [ 8.63275598, 47.69828386 ] } },
{ "type": "Feature", "properties": { "id": "8504012", "stop_id": "8504012", "stop_name": "Puidoux" }, "geometry": { "type": "Point", "coordinates": [ 6.76568851, 46.49384184 ] } },
{ "type": "Feature", "properties": { "id": "8504014", "stop_id": "8504014", "stop_name": "Palézieux" }, "geometry": { "type": "Point", "coordinates": [ 6.83787713, 46.54276233 ] } },
{ "type": "Feature", "properties": { "id": "8504100", "stop_id": "8504100", "stop_name": "Fribourg/Freiburg" }, "geometry": { "type": "Point", "coordinates": [ 7.1510478, 46.80314923 ] } },
{ "type": "Feature", "properties": { "id": "8504200", "stop_id": "8504200", "stop_name": "Yverdon-les-Bains" }, "geometry": { "type": "Point", "coordinates": [ 6.64094845, 46.78154335 ] } },
{ "type": "Feature", "properties": { "id": "8504221", "stop_id": "8504221", "stop_name": "Neuchâtel" }, "geometry": { "type": "Point", "coordinates": [ 6.93570366, 46.99672791 ] } },
{ "type": "Feature", "properties": { "id": "8504300", "stop_id": "8504300", "stop_name": "Biel/Bienne" }, "geometry": { "type": "Point", "coordinates": [ 7.24290952, 47.13289524 ] } },
{ "type": "Feature", "properties": { "id": "8505000", "stop_id": "8505000", "stop_name": "Luzern" }, "geometry": { "type": "Point", "coordinates": [ 8.31017995, 47.05017648 ] } },
{ "type": "Feature", "properties": { "id": "8505004", "stop_id": "8505004", "stop_name": "Arth-Goldau" }, "geometry": { "type": "Point", "coordinates": [ 8.54944622, 47.04904413 ] } },
{ "type": "Feature", "properties": { "id": "8505112", "stop_id": "8505112", "stop_name": "Flüelen" }, "geometry": { "type": "Point", "coordinates": [ 8.62430283, 46.90173226 ] } },
{ "type": "Feature", "properties": { "id": "8505113", "stop_id": "8505113", "stop_name": "Altdorf UR" }, "geometry": { "type": "Point", "coordinates": [ 8.63157919, 46.87573871 ] } },
{ "type": "Feature", "properties": { "id": "8505209", "stop_id": "8505209", "stop_name": "Biasca" }, "geometry": { "type": "Point", "coordinates": [ 8.97417867, 46.35198128 ] } },
{ "type": "Feature", "properties": { "id": "8505213", "stop_id": "8505213", "stop_name": "Bellinzona" }, "geometry": { "type": "Point", "coordinates": [ 9.02951489, 46.19543302 ] } },
{ "type": "Feature", "properties": { "id": "8505214", "stop_id": "8505214", "stop_name": "Giubiasco" }, "geometry": { "type": "Point", "coordinates": [ 9.0035985, 46.17381449 ] } },
{ "type": "Feature", "properties": { "id": "8505300", "stop_id": "8505300", "stop_name": "Lugano" }, "geometry": { "type": "Point", "coordinates": [ 8.94699565, 46.00550223 ] } },
{ "type": "Feature", "properties": { "id": "8505305", "stop_id": "8505305", "stop_name": "Mendrisio" }, "geometry": { "type": "Point", "coordinates": [ 8.97860737, 45.86911151 ] } },
{ "type": "Feature", "properties": { "id": "8505307", "stop_id": "8505307", "stop_name": "Chiasso" }, "geometry": { "type": "Point", "coordinates": [ 9.03144627, 45.83216991 ] } },
{ "type": "Feature", "properties": { "id": "8505400", "stop_id": "8505400", "stop_name": "Locarno" }, "geometry": { "type": "Point", "coordinates": [ 8.80136078, 46.17242106 ] } },
{ "type": "Feature", "properties": { "id": "8505404", "stop_id": "8505404", "stop_name": "Cadenazzo" }, "geometry": { "type": "Point", "coordinates": [ 8.94169559, 46.15262308 ] } },
{ "type": "Feature", "properties": { "id": "8506000", "stop_id": "8506000", "stop_name": "Winterthur" }, "geometry": { "type": "Point", "coordinates": [ 8.7238182, 47.50033307 ] } },
{ "type": "Feature", "properties": { "id": "8506100", "stop_id": "8506100", "stop_name": "Frauenfeld" }, "geometry": { "type": "Point", "coordinates": [ 8.89656423, 47.558162 ] } },
{ "type": "Feature", "properties": { "id": "8506105", "stop_id": "8506105", "stop_name": "Weinfelden" }, "geometry": { "type": "Point", "coordinates": [ 9.10636577, 47.56622411 ] } },
{ "type": "Feature", "properties": { "id": "8506109", "stop_id": "8506109", "stop_name": "Amriswil" }, "geometry": { "type": "Point", "coordinates": [ 9.30222545, 47.55045031 ] } },
{ "type": "Feature", "properties": { "id": "8506121", "stop_id": "8506121", "stop_name": "Romanshorn" }, "geometry": { "type": "Point", "coordinates": [ 9.37937276, 47.56552099 ] } },
{ "type": "Feature", "properties": { "id": "8506210", "stop_id": "8506210", "stop_name": "Gossau SG" }, "geometry": { "type": "Point", "coordinates": [ 9.25305167, 47.41183485 ] } },
{ "type": "Feature", "properties": { "id": "8506217", "stop_id": "8506217", "stop_name": "Sulgen" }, "geometry": { "type": "Point", "coordinates": [ 9.18369275, 47.5388018 ] } },
{ "type": "Feature", "properties": { "id": "8506302", "stop_id": "8506302", "stop_name": "St. Gallen" }, "geometry": { "type": "Point", "coordinates": [ 9.36989554, 47.42317725 ] } },
{ "type": "Feature", "properties": { "id": "8506311", "stop_id": "8506311", "stop_name": "Rorschach" }, "geometry": { "type": "Point", "coordinates": [ 9.5051369, 47.47800087 ] } },
{ "type": "Feature", "properties": { "id": "8507000", "stop_id": "8507000", "stop_name": "Bern" }, "geometry": { "type": "Point", "coordinates": [ 7.43912853, 46.94883109 ] } },
{ "type": "Feature", "properties": { "id": "8507100", "stop_id": "8507100", "stop_name": "Thun" }, "geometry": { "type": "Point", "coordinates": [ 7.6296073, 46.75485153 ] } },
{ "type": "Feature", "properties": { "id": "8507483", "stop_id": "8507483", "stop_name": "Spiez" }, "geometry": { "type": "Point", "coordinates": [ 7.68010161, 46.68639413 ] } },
{ "type": "Feature", "properties": { "id": "8507492", "stop_id": "8507492", "stop_name": "Interlaken Ost" }, "geometry": { "type": "Point", "coordinates": [ 7.86899934, 46.69049811 ] } },
{ "type": "Feature", "properties": { "id": "8507493", "stop_id": "8507493", "stop_name": "Interlaken West" }, "geometry": { "type": "Point", "coordinates": [ 7.85145525, 46.68262879 ] } },
{ "type": "Feature", "properties": { "id": "8509000", "stop_id": "8509000", "stop_name": "Chur" }, "geometry": { "type": "Point", "coordinates": [ 9.52894226, 46.85308692 ] } },
{ "type": "Feature", "properties": { "id": "8509002", "stop_id": "8509002", "stop_name": "Landquart" }, "geometry": { "type": "Point", "coordinates": [ 9.55404119, 46.96743957 ] } },
{ "type": "Feature", "properties": { "id": "8714100", "stop_id": "8714100", "stop_name": "Nancy" }, "geometry": { "type": "Point", "coordinates": [ 6.174094, 48.68980049 ] } },
{ "type": "Feature", "properties": { "id": "8714104", "stop_id": "8714104", "stop_name": "Toul" }, "geometry": { "type": "Point", "coordinates": [ 5.88092881, 48.67900062 ] } },
{ "type": "Feature", "properties": { "id": "8714129", "stop_id": "8714129", "stop_name": "Neufchâteau" }, "geometry": { "type": "Point", "coordinates": [ 5.69039613, 48.35833259 ] } },
{ "type": "Feature", "properties": { "id": "8714212", "stop_id": "8714212", "stop_name": "Culmont - Chalindrey" }, "geometry": { "type": "Point", "coordinates": [ 5.44317078, 47.80996011 ] } },
{ "type": "Feature", "properties": { "id": "8748100", "stop_id": "8748100", "stop_name": "Nantes" }, "geometry": { "type": "Point", "coordinates": [ -1.54147309, 47.21709028 ] } },
{ "type": "Feature", "properties": { "id": "8748400", "stop_id": "8748400", "stop_name": "Angers-St-Laud" }, "geometry": { "type": "Point", "coordinates": [ -0.55852753, 47.46408321 ] } },
{ "type": "Feature", "properties": { "id": "8748760", "stop_id": "8748760", "stop_name": "Saumur-Rive-Droite" }, "geometry": { "type": "Point", "coordinates": [ -0.0715598, 47.26886111 ] } },
{ "type": "Feature", "properties": { "id": "8754700", "stop_id": "8754700", "stop_name": "Paris-Austerlitz" }, "geometry": { "type": "Point", "coordinates": [ 2.36639602, 48.84102744 ] } },
{ "type": "Feature", "properties": { "id": "8757124", "stop_id": "8757124", "stop_name": "St-Pierre-des-Corps" }, "geometry": { "type": "Point", "coordinates": [ 0.72388941, 47.3855422 ] } },
{ "type": "Feature", "properties": { "id": "8757600", "stop_id": "8757600", "stop_name": "Vierzon" }, "geometry": { "type": "Point", "coordinates": [ 2.05994474, 47.22672376 ] } },
{ "type": "Feature", "properties": { "id": "8757620", "stop_id": "8757620", "stop_name": "Bourges" }, "geometry": { "type": "Point", "coordinates": [ 2.39438752, 47.09431322 ] } },
{ "type": "Feature", "properties": { "id": "8759457", "stop_id": "8759457", "stop_name": "St-Denis-près-Martel" }, "geometry": { "type": "Point", "coordinates": [ 1.66623112, 44.94580103 ] } },
{ "type": "Feature", "properties": { "id": "8759476", "stop_id": "8759476", "stop_name": "Bretenoux-Biars" }, "geometry": { "type": "Point", "coordinates": [ 1.84369331, 44.92737244 ] } },
{ "type": "Feature", "properties": { "id": "8764500", "stop_id": "8764500", "stop_name": "Aurillac" }, "geometry": { "type": "Point", "coordinates": [ 2.43590766, 44.9209611 ] } },
{ "type": "Feature", "properties": { "id": "8764513", "stop_id": "8764513", "stop_name": "Laroquebrou" }, "geometry": { "type": "Point", "coordinates": [ 2.19298524, 44.96423007 ] } },
{ "type": "Feature", "properties": { "id": "8764550", "stop_id": "8764550", "stop_name": "Neussargues" }, "geometry": { "type": "Point", "coordinates": [ 2.97914586, 45.12515407 ] } },
{ "type": "Feature", "properties": { "id": "8768666", "stop_id": "8768666", "stop_name": "Paris-Bercy" }, "geometry": { "type": "Point", "coordinates": [ 2.38288909, 48.83912957 ] } },
{ "type": "Feature", "properties": { "id": "8769600", "stop_id": "8769600", "stop_name": "Nevers" }, "geometry": { "type": "Point", "coordinates": [ 3.15020306, 46.98771452 ] } },
{ "type": "Feature", "properties": { "id": "8769626", "stop_id": "8769626", "stop_name": "Saincaize" }, "geometry": { "type": "Point", "coordinates": [ 3.07210352, 46.93127126 ] } },
{ "type": "Feature", "properties": { "id": "8769632", "stop_id": "8769632", "stop_name": "Moulins sur Allier" }, "geometry": { "type": "Point", "coordinates": [ 3.33926249, 46.56125212 ] } },
{ "type": "Feature", "properties": { "id": "8771304", "stop_id": "8771304", "stop_name": "Dijon" }, "geometry": { "type": "Point", "coordinates": [ 5.02612791, 47.32291364 ] } },
{ "type": "Feature", "properties": { "id": "8772202", "stop_id": "8772202", "stop_name": "Lyon Perrache" }, "geometry": { "type": "Point", "coordinates": [ 4.82530055, 45.74836609 ] } },
{ "type": "Feature", "properties": { "id": "8772319", "stop_id": "8772319", "stop_name": "Lyon Part Dieu" }, "geometry": { "type": "Point", "coordinates": [ 4.85999348, 45.76056334 ] } },
{ "type": "Feature", "properties": { "id": "8772500", "stop_id": "8772500", "stop_name": "Chalon-sur-Saône" }, "geometry": { "type": "Point", "coordinates": [ 4.84339262, 46.7817402 ] } },
{ "type": "Feature", "properties": { "id": "8772568", "stop_id": "8772568", "stop_name": "Mâcon" }, "geometry": { "type": "Point", "coordinates": [ 4.82480648, 46.30293887 ] } },
{ "type": "Feature", "properties": { "id": "8772680", "stop_id": "8772680", "stop_name": "Roanne" }, "geometry": { "type": "Point", "coordinates": [ 4.0630441, 46.03934171 ] } },
{ "type": "Feature", "properties": { "id": "8773200", "stop_id": "8773200", "stop_name": "Vichy" }, "geometry": { "type": "Point", "coordinates": [ 3.43068404, 46.12701576 ] } },
{ "type": "Feature", "properties": { "id": "8773220", "stop_id": "8773220", "stop_name": "Saint-Germain-des-Fossés" }, "geometry": { "type": "Point", "coordinates": [ 3.43052234, 46.20924178 ] } },
{ "type": "Feature", "properties": { "id": "8773400", "stop_id": "8773400", "stop_name": "Clermont-Ferrand" }, "geometry": { "type": "Point", "coordinates": [ 3.10102029, 45.77867253 ] } },
{ "type": "Feature", "properties": { "id": "8773405", "stop_id": "8773405", "stop_name": "Riom - Châtel-Guyon" }, "geometry": { "type": "Point", "coordinates": [ 3.12064848, 45.88983661 ] } },
{ "type": "Feature", "properties": { "id": "8773420", "stop_id": "8773420", "stop_name": "Issoire" }, "geometry": { "type": "Point", "coordinates": [ 3.2541561, 45.54406535 ] } },
{ "type": "Feature", "properties": { "id": "8773424", "stop_id": "8773424", "stop_name": "Brassac-les-Mines-Ste-Florine" }, "geometry": { "type": "Point", "coordinates": [ 3.33016256, 45.41409147 ] } },
{ "type": "Feature", "properties": { "id": "8773425", "stop_id": "8773425", "stop_name": "Arvant" }, "geometry": { "type": "Point", "coordinates": [ 3.3106781, 45.36538205 ] } },
{ "type": "Feature", "properties": { "id": "8773487", "stop_id": "8773487", "stop_name": "Massiac - Blesle" }, "geometry": { "type": "Point", "coordinates": [ 3.19655612, 45.25376844 ] } },
{ "type": "Feature", "properties": { "id": "8776178", "stop_id": "8776178", "stop_name": "Crest" }, "geometry": { "type": "Point", "coordinates": [ 5.01598593, 44.73008172 ] } },
{ "type": "Feature", "properties": { "id": "8776184", "stop_id": "8776184", "stop_name": "Die" }, "geometry": { "type": "Point", "coordinates": [ 5.36314886, 44.75816165 ] } },
{ "type": "Feature", "properties": { "id": "8776187", "stop_id": "8776187", "stop_name": "Luc-en-Diois" }, "geometry": { "type": "Point", "coordinates": [ 5.45451651, 44.6135523 ] } },
{ "type": "Feature", "properties": { "id": "8776300", "stop_id": "8776300", "stop_name": "Gap" }, "geometry": { "type": "Point", "coordinates": [ 6.08569977, 44.56381186 ] } },
{ "type": "Feature", "properties": { "id": "8776330", "stop_id": "8776330", "stop_name": "Veynes-Devoluy" }, "geometry": { "type": "Point", "coordinates": [ 5.81652858, 44.53196204 ] } },
{ "type": "Feature", "properties": { "id": "8776342", "stop_id": "8776342", "stop_name": "Chorges" }, "geometry": { "type": "Point", "coordinates": [ 6.27176782, 44.54577964 ] } },
{ "type": "Feature", "properties": { "id": "8776346", "stop_id": "8776346", "stop_name": "Embrun" }, "geometry": { "type": "Point", "coordinates": [ 6.49685868, 44.56717828 ] } },
{ "type": "Feature", "properties": { "id": "8776350", "stop_id": "8776350", "stop_name": "Montdauphin-Guillestre" }, "geometry": { "type": "Point", "coordinates": [ 6.61551715, 44.67459002 ] } },
{ "type": "Feature", "properties": { "id": "8776355", "stop_id": "8776355", "stop_name": "L'Argentière-les-Ecrins" }, "geometry": { "type": "Point", "coordinates": [ 6.5561924, 44.79095215 ] } },
{ "type": "Feature", "properties": { "id": "8776360", "stop_id": "8776360", "stop_name": "Briançon" }, "geometry": { "type": "Point", "coordinates": [ 6.63282768, 44.89002018 ] } },
{ "type": "Feature", "properties": { "id": "8778100", "stop_id": "8778100", "stop_name": "Béziers" }, "geometry": { "type": "Point", "coordinates": [ 3.21879841, 43.33618217 ] } },
{ "type": "Feature", "properties": { "id": "8778154", "stop_id": "8778154", "stop_name": "Ceilhes-Roqueredonde" }, "geometry": { "type": "Point", "coordinates": [ 3.15511684, 43.8122159 ] } },
{ "type": "Feature", "properties": { "id": "8778158", "stop_id": "8778158", "stop_name": "Le Bousquet-d'Orb" }, "geometry": { "type": "Point", "coordinates": [ 3.16895988, 43.69123656 ] } },
{ "type": "Feature", "properties": { "id": "8778160", "stop_id": "8778160", "stop_name": "Bédarieux" }, "geometry": { "type": "Point", "coordinates": [ 3.14956525, 43.60869382 ] } },
{ "type": "Feature", "properties": { "id": "8778166", "stop_id": "8778166", "stop_name": "Magalas" }, "geometry": { "type": "Point", "coordinates": [ 3.22972192, 43.46744128 ] } },
{ "type": "Feature", "properties": { "id": "8778300", "stop_id": "8778300", "stop_name": "Millau" }, "geometry": { "type": "Point", "coordinates": [ 3.07449304, 44.10248052 ] } },
{ "type": "Feature", "properties": { "id": "8778317", "stop_id": "8778317", "stop_name": "Saint-Flour - Chaudes-Aigues" }, "geometry": { "type": "Point", "coordinates": [ 3.10504475, 45.03522089 ] } },
{ "type": "Feature", "properties": { "id": "8778324", "stop_id": "8778324", "stop_name": "St-Chély-d'Apcher" }, "geometry": { "type": "Point", "coordinates": [ 3.27069408, 44.80173795 ] } },
{ "type": "Feature", "properties": { "id": "8778326", "stop_id": "8778326", "stop_name": "Aumont-Aubrac" }, "geometry": { "type": "Point", "coordinates": [ 3.28354898, 44.71816549 ] } },
{ "type": "Feature", "properties": { "id": "8778328", "stop_id": "8778328", "stop_name": "Marvejols" }, "geometry": { "type": "Point", "coordinates": [ 3.28107861, 44.54468486 ] } },
{ "type": "Feature", "properties": { "id": "8778330", "stop_id": "8778330", "stop_name": "Le Monastier" }, "geometry": { "type": "Point", "coordinates": [ 3.25205404, 44.50896814 ] } },
{ "type": "Feature", "properties": { "id": "8778332", "stop_id": "8778332", "stop_name": "Banassac-la-Canourgue" }, "geometry": { "type": "Point", "coordinates": [ 3.19613392, 44.44758317 ] } },
{ "type": "Feature", "properties": { "id": "8778334", "stop_id": "8778334", "stop_name": "Campagnac-St-Geniez" }, "geometry": { "type": "Point", "coordinates": [ 3.06639922, 44.42195764 ] } },
{ "type": "Feature", "properties": { "id": "8778336", "stop_id": "8778336", "stop_name": "Sévérac-le-Château" }, "geometry": { "type": "Point", "coordinates": [ 3.05694895, 44.32465164 ] } },
{ "type": "Feature", "properties": { "id": "8778342", "stop_id": "8778342", "stop_name": "St-Georges-de-Luzençon" }, "geometry": { "type": "Point", "coordinates": [ 2.98359252, 44.0665711 ] } },
{ "type": "Feature", "properties": { "id": "8778343", "stop_id": "8778343", "stop_name": "St-Rome-de-Cernon" }, "geometry": { "type": "Point", "coordinates": [ 2.96736895, 44.0139808 ] } },
{ "type": "Feature", "properties": { "id": "8778345", "stop_id": "8778345", "stop_name": "Tournemire-Roquefort" }, "geometry": { "type": "Point", "coordinates": [ 3.01649781, 43.96989793 ] } }
]
}
